H1 CPF  1  DLR 2022 06 22 10  6732 technosat            
H2  1704205 6203    42829 2022 06 22 00 00 00 2022 06 29 00 00 00    60 1 1  0 0 0
H9
10 0 59754  79200.000000  0      -1868035.472        183571.144      -6716156.750
10 0 59754  79260.000000  0      -2221450.013        446718.139      -6594508.574
10 0 59754  79320.000000  0      -2563244.659        711034.367      -6445015.792
10 0 59754  79380.000000  0      -2891976.294        975302.350      -6268295.500
10 0 59754  79440.000000  0      -3206265.323       1238291.144      -6065079.511
10 0 59754  79500.000000  0      -3504801.594       1498761.978      -5836211.733
10 0 59754  79560.000000  0      -3786350.057       1755474.027      -5582645.032
10 0 59754  79620.000000  0      -4049756.084       2007190.300      -5305437.635
10 0 59754  79680.000000  0      -4293950.466       2252683.649      -5005749.039
10 0 59754  79740.000000  0      -4517954.036       2490742.778      -4684835.417
10 0 59754  79800.000000  0      -4720881.853       2720178.239      -4344044.602
10 0 59754  79860.000000  0      -4901947.000       2939828.396      -3984810.680
10 0 59754  79920.000000  0      -5060463.966       3148565.356      -3608648.200
10 0 59754  79980.000000  0      -5195851.627       3345300.874      -3217145.959
10 0 59754  80040.000000  0      -5307635.689       3528992.152      -2811960.315
10 0 59754  80100.000000  0      -5395450.579       3698647.420      -2394808.170
10 0 59754  80160.000000  0      -5459040.871       3853331.342      -1967459.685
10 0 59754  80220.000000  0      -5498262.227       3992170.219      -1531730.635
10 0 59754  80280.000000  0      -5513081.730       4114356.902      -1089474.463
10 0 59754  80340.000000  0      -5503577.645       4219155.403       -642574.192
10 0 59754  80400.000000  0      -5469938.681       4305905.237       -192934.141
10 0 59754  80460.000000  0      -5412462.697       4374025.413        257528.567
10 0 59754  80520.000000  0      -5331554.759       4423017.946        706892.612
10 0 59754  80580.000000  0      -5227724.665       4452470.946       1153240.998
10 0 59754  80640.000000  0      -5101583.989       4462061.330       1594669.604
10 0 59754  80700.000000  0      -4953842.578       4451557.019       2029295.668
10 0 59754  80760.000000  0      -4785304.595       4420818.748       2455266.082
10 0 59754  80820.000000  0      -4596864.097       4369801.424       2870765.599
10 0 59754  80880.000000  0      -4389500.176       4298554.959       3274024.839
10 0 59754  80940.000000  0      -4164271.731       4207224.605       3663328.016
10 0 59754  81000.000000  0      -3922311.876       4096050.800       4037020.379
10 0 59754  81060.000000  0      -3664822.081       3965368.579       4393515.310
10 0 59754  81120.000000  0      -3393066.006       3815606.519       4731301.153
10 0 59754  81180.000000  0      -3108363.030       3647285.161       5048947.600
10 0 59754  81240.000000  0      -2812081.665       3461015.041       5345111.663
10 0 59754  81300.000000  0      -2505632.744       3257494.280       5618543.250
10 0 59754  81360.000000  0      -2190462.521       3037505.745       5868090.255
10 0 59754  81420.000000  0      -1868045.672       2801913.842       6092703.214
10 0 59754  81480.000000  0      -1539878.221       2551660.878       6291439.501
10 0 59754  81540.000000  0      -1207470.465       2287763.044       6463466.905
10 0 59754  81600.000000  0       -872340.072       2011306.188       6608066.777
10 0 59754  81660.000000  0       -536005.169       1723441.240       6724636.863
10 0 59754  81720.000000  0       -199977.438       1425379.275       6812693.592
10 0 59754  81780.000000  0        134244.680       1118386.343       6871873.817
10 0 59754  81840.000000  0        465182.627        803778.057       6901936.092
10 0 59754  81900.000000  0        791384.199        482913.947       6902761.477
10 0 59754  81960.000000  0       1111429.848        157191.608       6874353.895
10 0 59754  82020.000000  0       1423938.789       -171959.364       6816840.024
10 0 59754  82080.000000  0       1727574.910       -503083.650       6730468.715
10 0 59754  82140.000000  0       2021052.419       -834706.634       6615609.850
10 0 59754  82200.000000  0       2303141.211      -1165340.866       6472752.808
10 0 59754  82260.000000  0       2572672.038      -1493492.697       6302504.515
10 0 59754  82320.000000  0       2828541.379      -1817669.025       6105586.962
10 0 59754  82380.000000  0       3069715.969      -2136384.084       5882834.216
10 0 59754  82440.000000  0       3295236.974      -2448166.202       5635189.011
10 0 59754  82500.000000  0       3504223.848      -2751564.594       5363698.942
10 0 59754  82560.000000  0       3695877.830      -3045156.140       5069512.191
10 0 59754  82620.000000  0       3869485.050      -3327552.094       4753872.806
10 0 59754  82680.000000  0       4024419.255      -3597404.691       4418115.590
10 0 59754  82740.000000  0       4160144.139      -3853413.660       4063660.556
10 0 59754  82800.000000  0       4276215.205      -4094332.543       3692007.012
10 0 59754  82860.000000  0       4372281.232      -4318974.846       3304727.309
10 0 59754  82920.000000  0       4448085.324      -4526219.959       2903460.207
10 0 59754  82980.000000  0       4503465.481      -4715018.794       2489903.916
10 0 59754  83040.000000  0       4538354.696      -4884399.108       2065808.869
10 0 59754  83100.000000  0       4552780.612      -5033470.515       1632970.255
10 0 59754  83160.000000  0       4546864.717      -5161429.154       1193220.329
10 0 59754  83220.000000  0       4520821.047      -5267561.951        748420.507
10 0 59754  83280.000000  0       4474954.451      -5351250.402        300453.392
10 0 59754  83340.000000  0       4409658.507      -5411973.993       -148785.259
10 0 59754  83400.000000  0       4325413.028      -5449313.223       -597394.743
10 0 59754  83460.000000  0       4222781.066      -5462952.089      -1043477.678
10 0 59754  83520.000000  0       4102405.498      -5452680.017      -1485148.179
10 0 59754  83580.000000  0       3965005.290      -5418393.316      -1920539.918
10 0 59754  83640.000000  0       3811371.437      -5360096.164      -2347814.096
10 0 59754  83700.000000  0       3642362.585      -5277901.050      -2765167.331
10 0 59754  83760.000000  0       3458900.325      -5172028.668      -3170839.326
10 0 59754  83820.000000  0       3261964.232      -5042807.328      -3563120.266
10 0 59754  83880.000000  0       3052586.669      -4890671.907      -3940358.000
10 0 59754  83940.000000  0       2831847.389      -4716162.266      -4300964.936
10 0 59754  84000.000000  0       2600867.962      -4519921.168      -4643424.611
10 0 59754  84060.000000  0       2360806.091      -4302691.704      -4966297.890
10 0 59754  84120.000000  0       2112849.838      -4065314.274      -5268228.764
10 0 59754  84180.000000  0       1858211.817      -3808723.206      -5547949.762
10 0 59754  84240.000000  0       1598123.323      -3533942.992      -5804287.044
10 0 59754  84300.000000  0       1333828.428      -3242084.111      -6036165.070
10 0 59754  84360.000000  0       1066578.102      -2934338.506      -6242610.886
10 0 59754  84420.000000  0        797624.337      -2611974.655      -6422757.991
10 0 59754  84480.000000  0        528214.367      -2276332.304      -6575849.728
10 0 59754  84540.000000  0        259584.989      -1928816.913      -6701242.230
10 0 59754  84600.000000  0         -7042.996      -1570893.817      -6798406.933
10 0 59754  84660.000000  0       -270470.177      -1204082.125      -6866932.652
10 0 59754  84720.000000  0       -529523.799       -829948.393      -6906527.217
10 0 59754  84780.000000  0       -783062.874       -450100.087      -6917018.689
10 0 59754  84840.000000  0      -1029983.156        -66178.832      -6898356.095
10 0 59754  84900.000000  0      -1269221.881        320146.487      -6850609.704
10 0 59754  84960.000000  0      -1499762.289        707186.794      -6773970.924
10 0 59754  85020.000000  0      -1720637.902       1093240.095      -6668751.707
10 0 59754  85080.000000  0      -1930936.523       1476598.826      -6535383.455
10 0 59754  85140.000000  0      -2129804.008       1855557.204      -6374415.546
10 0 59754  85200.000000  0      -2316447.821       2228418.748      -6186513.475
10 0 59754  85260.000000  0      -2490140.293       2593503.896      -5972456.424
10 0 59754  85320.000000  0      -2650221.507       2949157.562      -5733134.354
10 0 59754  85380.000000  0      -2796101.930       3293756.690      -5469544.725
10 0 59754  85440.000000  0      -2927264.759       3625717.799      -5182788.705
10 0 59754  85500.000000  0      -3043267.902       3943504.451      -4874066.881
10 0 59754  85560.000000  0      -3143745.602       4245634.567      -4544674.493
10 0 59754  85620.000000  0      -3228409.667       4530687.577      -4195996.216
10 0 59754  85680.000000  0      -3297050.324       4797311.344      -3829500.496
10 0 59754  85740.000000  0      -3349536.638       5044228.774      -3446733.523
10 0 59754  85800.000000  0      -3385816.615       5270244.213      -3049312.924
10 0 59754  85860.000000  0      -3405916.967       5474249.599      -2638920.994
10 0 59754  85920.000000  0      -3409942.433       5655230.216      -2217297.567
10 0 59754  85980.000000  0      -3398074.700       5812270.088      -1786232.559
10 0 59754  86040.000000  0      -3370570.889       5944556.929      -1347558.178
10 0 59754  86100.000000  0      -3327761.629       6051386.519       -903140.884
10 0 59754  86160.000000  0      -3270048.811       6132166.505       -454873.285
10 0 59754  86220.000000  0      -3197903.099       6186419.893         -4665.896
10 0 59754  86280.000000  0      -3111860.995       6213787.974        445561.448
10 0 59754  86340.000000  0      -3012521.516       6214032.540        893888.223
99
